0 SL-12 R/B(2)
1 26569U 00063F   13285.53172797  .00000082  00000-0  00000+0 0  5419
2 26569 064.6768 110.2541 0011705 006.1704 359.8016 02.13430296101300
0 SL-12 R/B(2)
1 26569U 00063F   13292.14388762  .00000046  00000-0  00000+0 0  5426
2 26569 064.6785 110.0283 0011716 006.1942 040.2132 02.13430405101443
0 SL-12 R/B(2)
1 26569U 00063F   13294.68612620  .00000033  00000-0  00000+0 0  5437
2 26569 064.6793 109.9415 0011677 006.2264 193.5055 02.13430375101497
